{
  "type": "FeatureCollection",
  "features": [
    {
      "type": "Feature",
      "properties": {
        "norad_id": 45807,
        "name": "BEIDOU-3 G3 (C61)",
        "group": "gnss",
        "lat": -2.0346625116351293,
        "lon": -24.395541488774388,
        "alt_km": 35766.55362151169,
        "timestamp": "2025-12-27T08:36:18.625732+00:00",
        "meta_object_name": "BEIDOU-3 G3 (C61)",
        "meta_object_id": "2020-040A",
        "meta_epoch": "2025-12-26T22:07:13.837152",
        "meta_mean_motion": 1.00266424,
        "meta_eccentricity": 0.00065872,
        "meta_inclination": 2.0233,
        "meta_ra_of_asc_node": 66.7,
        "meta_arg_of_pericenter": 308.2917,
        "meta_mean_anomaly": 162.9749,
        "meta_ephemeris_type": 0,
        "meta_classification_type": "U",
        "meta_norad_cat_id": 45807,
        "meta_element_set_no": 999,
        "meta_rev_at_epoch": 2034,
        "meta_bstar": 0,
        "meta_mean_motion_dot": -3.32e-06,
        "meta_mean_motion_ddot": 0,
        "tle_line1": "1 45807U 20040A   25360.92168793 -.00000332  00000+0  00000+0 0  9998",
        "tle_line2": "2 45807   2.0233  66.7000 0006587 308.2917 162.9749  1.00266424 20343"
      },
      "geometry": {
        "type": "Point",
        "coordinates": [
          -24.395541488774388,
          -2.0346625116351293
        ]
      }
    },
    {
      "type": "Feature",
      "properties": {
        "norad_id": 45854,
        "name": "GPS BIII-3  (PRN 23)",
        "group": "gnss",
        "lat": 55.47147291033111,
        "lon": 141.86091345756375,
        "alt_km": 20216.33147685573,
        "timestamp": "2025-12-27T08:36:18.625743+00:00",
        "meta_object_name": "GPS BIII-3  (PRN 23)",
        "meta_object_id": "2020-041A",
        "meta_epoch": "2025-12-26T05:40:05.983104",
        "meta_mean_motion": 2.00561528,
        "meta_eccentricity": 0.0060682,
        "meta_inclination": 56.556,
        "meta_ra_of_asc_node": 35.6606,
        "meta_arg_of_pericenter": 203.8008,
        "meta_mean_anomaly": 165.623,
        "meta_ephemeris_type": 0,
        "meta_classification_type": "U",
        "meta_norad_cat_id": 45854,
        "meta_element_set_no": 999,
        "meta_rev_at_epoch": 4057,
        "meta_bstar": 0,
        "meta_mean_motion_dot": -5e-07,
        "meta_mean_motion_ddot": 0,
        "tle_line1": "1 45854U 20041A   25360.23618036 -.00000050  00000+0  00000+0 0  9992",
        "tle_line2": "2 45854  56.5560  35.6606 0060682 203.8008 165.6230  2.00561528 40572"
      },
      "geometry": {
        "type": "Point",
        "coordinates": [
          141.86091345756375,
          55.47147291033111
        ]
      }
    },
    {
      "type": "Feature",
      "properties": {
        "norad_id": 46114,
        "name": "GALAXY 30 (WAAS/PRN 135)",
        "group": "gnss",
        "lat": 0.019714936227769493,
        "lon": 100.15357068043066,
        "alt_km": 35796.05220704009,
        "timestamp": "2025-12-27T08:36:18.625757+00:00",
        "meta_object_name": "GALAXY 30 (WAAS/PRN 135)",
        "meta_object_id": "2020-056C",
        "meta_epoch": "2025-12-27T02:08:10.640256",
        "meta_mean_motion": 1.00271233,
        "meta_eccentricity": 0.0002329,
        "meta_inclination": 0.001,
        "meta_ra_of_asc_node": 1.8662,
        "meta_arg_of_pericenter": 274.1982,
        "meta_mean_anomaly": 86.8,
        "meta_ephemeris_type": 0,
        "meta_classification_type": "U",
        "meta_norad_cat_id": 46114,
        "meta_element_set_no": 999,
        "meta_rev_at_epoch": 1956,
        "meta_bstar": 0,
        "meta_mean_motion_dot": 5.9e-07,
        "meta_mean_motion_ddot": 0,
        "tle_line1": "1 46114U 20056C   25361.08901204  .00000059  00000+0  00000+0 0  9992",
        "tle_line2": "2 46114   0.0010   1.8662 0002329 274.1982  86.8000  1.00271233 19563"
      },
      "geometry": {
        "type": "Point",
        "coordinates": [
          100.15357068043066,
          0.019714936227769493
        ]
      }
    },
    {
      "type": "Feature",
      "properties": {
        "norad_id": 46805,
        "name": "COSMOS 2547 (705K)",
        "group": "gnss",
        "lat": 46.98016671493008,
        "lon": -12.413517157540381,
        "alt_km": 19127.757215557514,
        "timestamp": "2025-12-27T08:36:18.625769+00:00",
        "meta_object_name": "COSMOS 2547 (705K)",
        "meta_object_id": "2020-075A",
        "meta_epoch": "2025-12-26T17:24:01.074816",
        "meta_mean_motion": 2.13100147,
        "meta_eccentricity": 0.0006083,
        "meta_inclination": 64.597,
        "meta_ra_of_asc_node": 198.2292,
        "meta_arg_of_pericenter": 227.4749,
        "meta_mean_anomaly": 132.5285,
        "meta_ephemeris_type": 0,
        "meta_classification_type": "U",
        "meta_norad_cat_id": 46805,
        "meta_element_set_no": 999,
        "meta_rev_at_epoch": 4023,
        "meta_bstar": 0,
        "meta_mean_motion_dot": 1.16e-06,
        "meta_mean_motion_ddot": 0,
        "tle_line1": "1 46805U 20075A   25360.72501244  .00000116  00000+0  00000+0 0  9994",
        "tle_line2": "2 46805  64.5970 198.2292 0006083 227.4749 132.5285  2.13100147 40235"
      },
      "geometry": {
        "type": "Point",
        "coordinates": [
          -12.413517157540381,
          46.98016671493008
        ]
      }
    },
    {
      "type": "Feature",
      "properties": {
        "norad_id": 46826,
        "name": "GPS BIII-4  (PRN 14)",
        "group": "gnss",
        "lat": 49.7376311313244,
        "lon": -83.16138472361848,
        "alt_km": 20293.1925004103,
        "timestamp": "2025-12-27T08:36:18.625782+00:00",
        "meta_object_name": "GPS BIII-4  (PRN 14)",
        "meta_object_id": "2020-078A",
        "meta_epoch": "2025-12-16T01:06:13.902336",
        "meta_mean_motion": 2.00566891,
        "meta_eccentricity": 0.0064754,
        "meta_inclination": 54.0144,
        "meta_ra_of_asc_node": 218.2068,
        "meta_arg_of_pericenter": 203.3802,
        "meta_mean_anomaly": 339.3962,
        "meta_ephemeris_type": 0,
        "meta_classification_type": "U",
        "meta_norad_cat_id": 46826,
        "meta_element_set_no": 999,
        "meta_rev_at_epoch": 3783,
        "meta_bstar": 0,
        "meta_mean_motion_dot": 6.7e-07,
        "meta_mean_motion_ddot": 0,
        "tle_line1": "1 46826U 20078A   25350.04599424  .00000067  00000+0  00000+0 0  9996",
        "tle_line2": "2 46826  54.0144 218.2068 0064754 203.3802 339.3962  2.00566891 37830"
      },
      "geometry": {
        "type": "Point",
        "coordinates": [
          -83.16138472361848,
          49.7376311313244
        ]
      }
    },
    {
      "type": "Feature",
      "properties": {
        "norad_id": 48859,
        "name": "GPS BIII-5  (PRN 11)",
        "group": "gnss",
        "lat": -52.8189774573958,
        "lon": -134.46048160311804,
        "alt_km": 20128.019474027045,
        "timestamp": "2025-12-27T08:36:18.625793+00:00",
        "meta_object_name": "GPS BIII-5  (PRN 11)",
        "meta_object_id": "2021-054A",
        "meta_epoch": "2025-12-08T04:14:32.423424",
        "meta_mean_motion": 2.00553627,
        "meta_eccentricity": 0.0024678,
        "meta_inclination": 55.2581,
        "meta_ra_of_asc_node": 340.1367,
        "meta_arg_of_pericenter": 233.3993,
        "meta_mean_anomaly": 212.8594,
        "meta_ephemeris_type": 0,
        "meta_classification_type": "U",
        "meta_norad_cat_id": 48859,
        "meta_element_set_no": 999,
        "meta_rev_at_epoch": 3292,
        "meta_bstar": 0,
        "meta_mean_motion_dot": -8.6e-07,
        "meta_mean_motion_ddot": 0,
        "tle_line1": "1 48859U 21054A   25342.17676416 -.00000086  00000+0  00000+0 0  9993",
        "tle_line2": "2 48859  55.2581 340.1367 0024678 233.3993 212.8594  2.00553627 32922"
      },
      "geometry": {
        "type": "Point",
        "coordinates": [
          -134.46048160311804,
          -52.8189774573958
        ]
      }
    },
    {
      "type": "Feature",
      "properties": {
        "norad_id": 49336,
        "name": "QZS-1R (QZSS/PRN 196)",
        "group": "gnss",
        "lat": -36.741591069635945,
        "lon": 1.819239572342927,
        "alt_km": 32627.450998151096,
        "timestamp": "2025-12-27T08:36:18.625804+00:00",
        "meta_object_name": "QZS-1R (QZSS/PRN 196)",
        "meta_object_id": "2021-096A",
        "meta_epoch": "2025-12-24T14:02:51.747360",
        "meta_mean_motion": 1.00253394,
        "meta_eccentricity": 0.0757125,
        "meta_inclination": 37.101,
        "meta_ra_of_asc_node": 82.185,
        "meta_arg_of_pericenter": 271.5387,
        "meta_mean_anomaly": 84.3648,
        "meta_ephemeris_type": 0,
        "meta_classification_type": "U",
        "meta_norad_cat_id": 49336,
        "meta_element_set_no": 999,
        "meta_rev_at_epoch": 1526,
        "meta_bstar": 0,
        "meta_mean_motion_dot": -2.38e-06,
        "meta_mean_motion_ddot": 0,
        "tle_line1": "1 49336U 21096A   25358.58532115 -.00000238  00000+0  00000+0 0  9998",
        "tle_line2": "2 49336  37.1010  82.1850 0757125 271.5387  84.3648  1.00253394 15267"
      },
      "geometry": {
        "type": "Point",
        "coordinates": [
          1.819239572342927,
          -36.741591069635945
        ]
      }
    }
  ]
}